OBJECT_NAME,OBJECT_ID,EPOCH,MEAN_MOTION,ECCENTRICITY,INCLINATION,RA_OF_ASC_NODE,ARG_OF_PERICENTER,MEAN_ANOMALY,EPHEMERIS_TYPE,CLASSIFICATION_TYPE,NORAD_CAT_ID,ELEMENT_SET_NO,REV_AT_EPOCH,BSTAR,MEAN_MOTION_DOT,MEAN_MOTION_DDOT
SL-16 R/B,1994-077B,2026-07-04T05:18:43.490016,14.15577890,.00038888,70.9833,107.3267,312.3529,47.7264,0,U,23405,999,63272,-.45705688E-4,-.137E-5,0
ARIANE 40+ R/B,1995-021B,2026-07-03T23:06:18.912960,14.39842818,.00074754,98.4405,254.7949,145.7409,27.8118,0,U,23561,999,63597,.11175633E-3,.307E-5,0
SL-16 R/B,1995-058B,2026-07-04T00:31:34.096224,14.15510081,.00146347,71.0225,296.0133,297.4129,62.5505,0,U,23705,999,58431,-.10238958E-3,-.248E-5,0
SL-16 R/B,1996-051B,2026-07-04T05:46:18.509664,14.12452258,.00169091,70.7654,288.5588,312.6553,47.3141,0,U,24298,999,53810,.11787695E-3,.169E-5,0
ORBVIEW 2 (SEASTAR),1997-037A,2026-07-03T17:56:44.699712,14.35562371,.00033176,98.8703,352.2268,83.4784,276.6779,0,U,24883,999,52512,.11619703E-3,.288E-5,0
SL-16 R/B,1998-043G,2026-07-03T20:25:33.585888,14.26071358,.00105974,98.8372,139.1543,42.6609,317.5392,0,U,25400,999,45554,.43556199E-4,.59E-6,0
SL-16 R/B,1998-045B,2026-07-04T06:11:59.290368,14.16207563,.00086944,71.0127,296.4278,220.5658,139.4818,0,U,25407,999,44360,.70006074E-4,.91E-6,0
ISS (ZARYA),1998-067A,2026-07-04T02:07:57.020160,15.48879284,.00067632,51.6303,216.4301,253.0749,106.9498,0,U,25544,999,57437,.14587488E-3,.7564E-4,0
CZ-4B R/B,1999-025C,2026-07-04T01:31:11.706816,14.18286354,.00372664,98.6474,226.4765,11.8734,17.9708,0,U,25732,999,40466,.47171474E-4,.55E-6,0
OKEAN-O,1999-039A,2026-07-03T21:45:08.740224,14.80487212,.00011365,97.9307,243.5117,72.1343,287.9993,0,U,25860,999,45158,.93804653E-4,.666E-5,0
SL-16 R/B,1999-039B,2026-07-03T21:54:08.525952,14.81862201,.00136069,97.9829,243.7275,237.1917,122.7986,0,U,25861,999,45407,.81104912E-4,.588E-5,0
DELTA 2 R/B,1999-041E,2026-07-04T00:30:49.268448,14.12052462,.05011305,51.7612,196.5438,331.7622,25.6949,0,U,25876,999,37946,.26319683E-3,.1401E-4,0
HELIOS 1B,1999-064A,2026-07-04T04:35:34.101024,14.88053365,.00023663,98.1597,90.8223,68.2201,291.9266,0,U,25977,999,70258,.18568114E-3,.1648E-4,0
TERRA,1999-068A,2026-07-04T01:30:27.614304,14.61116974,.00028395,97.9446,233.9393,145.3783,240.2911,0,U,25994,999,41207,.10415946E-3,.468E-5,0
SL-16 R/B,2000-006B,2026-07-04T02:12:27.595584,14.15841097,.00166526,71.0010,213.0802,356.1771,3.9222,0,U,26070,999,36503,-.7598409E-5,-.63E-6,0
TITAN 4B R/B,2000-047B,2026-07-04T03:31:53.900832,15.10290915,.00459156,67.9886,72.8324,269.9002,89.6886,0,U,26474,999,41049,.19998498E-3,.3225E-4,0
ENVISAT,2002-009A,2026-07-04T07:19:49.063008,14.39068879,.00013937,98.3841,136.2427,85.4656,86.9277,0,U,27386,999,27594,.49887987E-4,.111E-5,0
IDEFIX & ARIANE 42P R/B,2002-021B,2026-07-03T20:09:13.342464,14.31089772,.00111866,98.5941,122.1426,200.2850,159.7890,0,U,27422,999,26063,.11068195E-3,.248E-5,0
AQUA,2002-022A,2026-07-04T03:39:36.298944,14.62184659,.00006906,98.4286,154.7752,86.9101,283.5268,0,U,27424,999,28575,.19549017E-3,.935E-5,0
CZ-4B R/B,2002-024C,2026-07-04T01:37:13.965600,14.14566968,.00509816,98.8689,237.7774,53.2324,331.4638,0,U,27432,999,24569,.4877821E-4,.51E-6,0
MIDORI II (ADEOS-II),2002-056A,2026-07-03T12:26:28.816512,14.29358384,.00019038,98.7886,143.9176,54.9385,305.1975,0,U,27597,999,22684,.12991725E-3,.286E-5,0
H-2A R/B,2002-056E,2026-07-04T04:03:08.900064,14.33829698,.00701673,98.3321,141.2251,173.5922,197.1039,0,U,27601,999,23080,.10550871E-3,.26E-5,0
CZ-4B R/B,2003-049C,2026-07-04T06:49:51.349440,14.55110999,.00470869,98.6902,184.8121,235.1124,124.5642,0,U,28059,999,20355,.86643486E-4,.327E-5,0
CZ-2C R/B,2004-012C,2026-07-04T04:33:03.895488,15.82652238,.0010896,97.7059,262.8747,224.2078,135.8321,0,U,28222,999,22258,.75273855E-3,.160304E-2,0
SL-16 R/B,2004-021B,2026-07-04T04:52:09.992352,14.14611632,.00065955,71.0017,347.9773,234.5798,125.4709,0,U,28353,999,13931,.18154214E-3,.301E-5,0
CZ-4B R/B,2004-035C,2026-07-04T03:05:30.183648,15.30866794,.0028816,97.3356,218.0134,274.3661,85.4288,0,U,28415,999,19771,.31355739E-3,.9395E-4,0
CZ-2C R/B,2004-046B,2026-07-04T05:31:09.399360,14.27030684,.01394935,98.1930,92.9446,169.7044,190.7048,0,U,28480,999,12512,.63007128E-4,.129E-5,0
ARIANE 5 R/B,2004-049H,2026-07-04T05:44:56.436576,14.85469508,.00832528,98.2734,358.1524,334.1677,25.5390,0,U,28499,999,16309,.79179014E-4,.66E-5,0
CZ-2D R/B,2005-024B,2026-07-04T00:58:43.092192,15.71509001,.00004908,97.3477,205.3319,265.6396,94.4811,0,U,28738,999,15798,.60013893E-3,.77114E-3,0
ALOS (DAICHI),2006-002A,2026-07-04T07:27:46.625184,14.70085949,.00008615,98.1330,140.8257,69.6809,290.4489,0,U,28931,999,9061,.21651266E-3,.1251E-4,0
