SL-16 R/B               
1 23405U 94077B   26185.22133669 -.00000137  00000+0 -45706-4 0  9993
2 23405  70.9833 107.3267 0003888 312.3529  47.7264 14.15577890632721
ARIANE 40+ R/B          
1 23561U 95021B   26184.96271890  .00000307  00000+0  11176-3 0  9995
2 23561  98.4405 254.7949 0007475 145.7409  27.8118 14.39842818635977
SL-16 R/B               
1 23705U 95058B   26185.02192241 -.00000248  00000+0 -10239-3 0  9990
2 23705  71.0225 296.0133 0014634 297.4129  62.5505 14.15510081584312
SL-16 R/B               
1 24298U 96051B   26185.24049201  .00000169  00000+0  11788-3 0  9993
2 24298  70.7654 288.5588 0016909 312.6553  47.3141 14.12452258538101
ORBVIEW 2 (SEASTAR)     
1 24883U 97037A   26184.74773958  .00000288  00000+0  11620-3 0  9992
2 24883  98.8703 352.2268 0003317  83.4784 276.6779 14.35562371525124
SL-16 R/B               
1 25400U 98043G   26184.85108317  .00000059  00000+0  43556-4 0  9999
2 25400  98.8372 139.1543 0010597  42.6609 317.5392 14.26071358455545
SL-16 R/B               
1 25407U 98045B   26185.25832512  .00000091  00000+0  70006-4 0  9990
2 25407  71.0127 296.4278 0008694 220.5658 139.4818 14.16207563443607
ISS (ZARYA)             
1 25544U 98067A   26185.08885440  .00007564  00000+0  14587-3 0  9998
2 25544  51.6303 216.4301 0006763 253.0749 106.9498 15.48879284574378
CZ-4B R/B               
1 25732U 99025C   26185.06332994  .00000055  00000+0  47171-4 0  9995
2 25732  98.6474 226.4765 0037266  11.8734  17.9708 14.18286354404663
OKEAN-O                 
1 25860U 99039A   26184.90635116  .00000666  00000+0  93805-4 0  9999
2 25860  97.9307 243.5117 0001136  72.1343 287.9993 14.80487212451589
SL-16 R/B               
1 25861U 99039B   26184.91259868  .00000588  00000+0  81105-4 0  9990
2 25861  97.9829 243.7275 0013606 237.1917 122.7986 14.81862201454072
DELTA 2 R/B             
1 25876U 99041E   26185.02140357  .00001401  00000+0  26320-3 0  9996
2 25876  51.7612 196.5438 0501130 331.7622  25.6949 14.12052462379463
HELIOS 1B               
1 25977U 99064A   26185.19136691  .00001648  00000+0  18568-3 0  9995
2 25977  98.1597  90.8223 0002366  68.2201 291.9266 14.88053365702581
TERRA                   
1 25994U 99068A   26185.06281961  .00000468  00000+0  10416-3 0  9998
2 25994  97.9446 233.9393 0002839 145.3783 240.2911 14.61116974412078
SL-16 R/B               
1 26070U 00006B   26185.09198606 -.00000063  00000+0 -75984-5 0  9990
2 26070  71.0010 213.0802 0016652 356.1771   3.9222 14.15841097365037
TITAN 4B R/B            
1 26474U 00047B   26185.14715163  .00003225  00000+0  19998-3 0  9994
2 26474  67.9886  72.8324 0045915 269.9002  89.6886 15.10290915410493
ENVISAT                 
1 27386U 02009A   26185.30542897  .00000111  00000+0  49888-4 0  9990
2 27386  98.3841 136.2427 0001393  85.4656  86.9277 14.39068879275947
IDEFIX & ARIANE 42P R/B 
1 27422U 02021B   26184.83973776  .00000248  00000+0  11068-3 0  9995
2 27422  98.5941 122.1426 0011186 200.2850 159.7890 14.31089772260635
AQUA                    
1 27424U 02022A   26185.15250346  .00000935  00000+0  19549-3 0  9990
2 27424  98.4286 154.7752 0000690  86.9101 283.5268 14.62184659285756
CZ-4B R/B               
1 27432U 02024C   26185.06752275  .00000051  00000+0  48778-4 0  9995
2 27432  98.8689 237.7774 0050981  53.2324 331.4638 14.14566968245691
MIDORI II (ADEOS-II)    
1 27597U 02056A   26184.51838908  .00000286  00000+0  12992-3 0  9997
2 27597  98.7886 143.9176 0001903  54.9385 305.1975 14.29358384226845
H-2A R/B                
1 27601U 02056E   26185.16885301  .00000260  00000+0  10551-3 0  9995
2 27601  98.3321 141.2251 0070167 173.5922 197.1039 14.33829698230806
CZ-4B R/B               
1 28059U 03049C   26185.28462210  .00000327  00000+0  86643-4 0  9999
2 28059  98.6902 184.8121 0047086 235.1124 124.5642 14.55110999203551
CZ-2C R/B               
1 28222U 04012C   26185.18962842  .00160304  00000+0  75274-3 0  9996
2 28222  97.7059 262.8747 0010896 224.2078 135.8321 15.82652238222584
SL-16 R/B               
1 28353U 04021B   26185.20289343  .00000301  00000+0  18154-3 0  9996
2 28353  71.0017 347.9773 0006595 234.5798 125.4709 14.14611632139316
CZ-4B R/B               
1 28415U 04035C   26185.12882157  .00009395  00000+0  31356-3 0  9994
2 28415  97.3356 218.0134 0028816 274.3661  85.4288 15.30866794197717
CZ-2C R/B               
1 28480U 04046B   26185.22996990  .00000129  00000+0  63007-4 0  9995
2 28480  98.1930  92.9446 0139493 169.7044 190.7048 14.27030684125123
ARIANE 5 R/B            
1 28499U 04049H   26185.23954209  .00000660  00000+0  79179-4 0  9993
2 28499  98.2734 358.1524 0083252 334.1677  25.5390 14.85469508163099
CZ-2D R/B               
1 28738U 05024B   26185.04077653  .00077114  00000+0  60014-3 0  9996
2 28738  97.3477 205.3319 0000490 265.6396  94.4811 15.71509001157986
ALOS (DAICHI)           
1 28931U 06002A   26185.31095631  .00001251  00000+0  21651-3 0  9997
2 28931  98.1330 140.8257 0000861  69.6809 290.4489 14.70085949 90618
